start=new Date('2022-08-12T00:00:00.000Z').valueOf();
sats=[{"OBJECT_NAME":"STARLINK-2155","ELEMENT_SET_NO":"999","DECAY_DATE":null,"PERIOD":"95.593","APOAPSIS":"548.272","COUNTRY_CODE":"US","SEMIMAJOR_AXIS":"6925.376","ECCENTRICITY":"0.00014880","REF_FRAME":"TEME","MEAN_MOTION_DDOT":"0.0000000000000","TLE_LINE2":"2 48557  53.0524 235.7640 0001488  77.0558 283.0597 15.06391035 68764","OBJECT_ID":"2021-041E","MEAN_MOTION":"15.06391035","MEAN_MOTION_DOT":"-0.00001316","OBJECT_TYPE":"PAYLOAD","CENTER_NAME":"EARTH","EPHEMERIS_TYPE":"0","SITE":"AFETR","ARG_OF_PERICENTER":"77.0558","GP_ID":"210037579","EPOCH":"2022-08-11T09:41:39.333408","TLE_LINE1":"1 48557U 21041E   22223.40392747 -.00001316  00000-0 -69511-4 0  9993","FILE":"3534610","BSTAR":"-0.00006951100000","RCS_SIZE":"LARGE","CLASSIFICATION_TYPE":"U","RA_OF_ASC_NODE":"235.7640","MEAN_ANOMALY":"283.0597","INCLINATION":"53.0524","NORAD_CAT_ID":"48557","TIME_SYSTEM":"UTC","MEAN_ELEMENT_THEORY":"SGP4","LAUNCH_DATE":"2021-05-15","REV_AT_EPOCH":"6876","PERIAPSIS":"546.211"},{"TLE_LINE2":"2 48558  53.0544 235.4915 0001252  78.2457 281.8673 15.06389008 67463","REF_FRAME":"TEME","MEAN_MOTION_DDOT":"0.0000000000000","OBJECT_ID":"2021-041F","SEMIMAJOR_AXIS":"6925.382","ECCENTRICITY":"0.00012520","PERIOD":"95.593","DECAY_DATE":null,"COUNTRY_CODE":"US","APOAPSIS":"548.114","OBJECT_NAME":"STARLINK-2166","ELEMENT_SET_NO":"999","PERIAPSIS":"546.380","LAUNCH_DATE":"2021-05-15","REV_AT_EPOCH":"6746","CLASSIFICATION_TYPE":"U","RA_OF_ASC_NODE":"235.4915","RCS_SIZE":"LARGE","FILE":"3534319","BSTAR":"0.00001224300000","TIME_SYSTEM":"UTC","MEAN_ELEMENT_THEORY":"SGP4","MEAN_ANOMALY":"281.8673","NORAD_CAT_ID":"48558","INCLINATION":"53.0544","EPOCH":"2022-08-11T11:11:52.499904","GP_ID":"210027335","TLE_LINE1":"1 48558U 21041F   22223.46657986 -.00000099  00000-0  12243-4 0  9995","OBJECT_TYPE":"PAYLOAD","CENTER_NAME":"EARTH","MEAN_MOTION_DOT":"-0.00000099","MEAN_MOTION":"15.06389008","ARG_OF_PERICENTER":"78.2457","EPHEMERIS_TYPE":"0","SITE":"AFETR"},{"TIME_SYSTEM":"UTC","MEAN_ELEMENT_THEORY":"SGP4","INCLINATION":"53.0545","NORAD_CAT_ID":"48559","MEAN_ANOMALY":"286.5833","RA_OF_ASC_NODE":"236.2116","CLASSIFICATION_TYPE":"U","FILE":"3534319","RCS_SIZE":"LARGE","BSTAR":"-0.00001338900000","PERIAPSIS":"546.171","REV_AT_EPOCH":"6829","LAUNCH_DATE":"2021-05-15","ARG_OF_PERICENTER":"73.5325","SITE":"AFETR","EPHEMERIS_TYPE":"0","CENTER_NAME":"EARTH","OBJECT_TYPE":"PAYLOAD","MEAN_MOTION_DOT":"-0.00000481","MEAN_MOTION":"15.06392685","TLE_LINE1":"1 48559U 21041G   22223.30345474 -.00000481  00000-0 -13389-4 0  9993","EPOCH":"2022-08-11T07:16:58.489536","GP_ID":"210027584","ECCENTRICITY":"0.00015380","SEMIMAJOR_AXIS":"6925.371","OBJECT_ID":"2021-041G","TLE_LINE2":"2 48559  53.0545 236.2116 0001538  73.5325 286.5833 15.06392685 68293","MEAN_MOTION_DDOT":"0.0000000000000","REF_FRAME":"TEME","ELEMENT_SET_NO":"999","OBJECT_NAME":"STARLINK-2167","COUNTRY_CODE":"US","APOAPSIS":"548.301","DECAY_DATE":null,"PERIOD":"95.593"},{"ECCENTRICITY":"0.00013570","SEMIMAJOR_AXIS":"6925.386","OBJECT_ID":"2021-041J","REF_FRAME":"TEME","MEAN_MOTION_DDOT":"0.0000000000000","TLE_LINE2":"2 48561  53.0536 204.9349 0001357  80.4158 279.6984 15.06387889 69174","ELEMENT_SET_NO":"999","OBJECT_NAME":"STARLINK-2186","APOAPSIS":"548.190","COUNTRY_CODE":"US","PERIOD":"95.593","DECAY_DATE":null,"MEAN_ANOMALY":"279.6984","NORAD_CAT_ID":"48561","INCLINATION":"53.0536","MEAN_ELEMENT_THEORY":"SGP4","TIME_SYSTEM":"UTC","FILE":"3534630","RCS_SIZE":"LARGE","BSTAR":"-0.00005562200000","CLASSIFICATION_TYPE":"U","RA_OF_ASC_NODE":"204.9349","REV_AT_EPOCH":"6917","LAUNCH_DATE":"2021-05-15","PERIAPSIS":"546.311","EPHEMERIS_TYPE":"0","SITE":"AFETR","ARG_OF_PERICENTER":"80.4158","MEAN_MOTION":"15.06387889","MEAN_MOTION_DOT":"-0.00001110","OBJECT_TYPE":"PAYLOAD","CENTER_NAME":"EARTH","TLE_LINE1":"1 48561U 21041J   22223.64999125 -.00001110  00000-0 -55622-4 0  9997","GP_ID":"210038132","EPOCH":"2022-08-11T15:35:59.244000"},{"REV_AT_EPOCH":"6832","LAUNCH_DATE":"2021-05-15","PERIAPSIS":"546.418","BSTAR":"-0.00002185700000","FILE":"3534319","RCS_SIZE":"LARGE","CLASSIFICATION_TYPE":"U","RA_OF_ASC_NODE":"235.5783","MEAN_ANOMALY":"276.8526","NORAD_CAT_ID":"48562","INCLINATION":"53.0535","TIME_SYSTEM":"UTC","MEAN_ELEMENT_THEORY":"SGP4","GP_ID":"210026585","EPOCH":"2022-08-11T10:40:01.458912","TLE_LINE1":"1 48562U 21041K   22223.44446133 -.00000607  00000-0 -21857-4 0  9995","MEAN_MOTION":"15.06391718","OBJECT_TYPE":"PAYLOAD","CENTER_NAME":"EARTH","MEAN_MOTION_DOT":"-0.00000607","EPHEMERIS_TYPE":"0","SITE":"AFETR","ARG_OF_PERICENTER":"83.2597","REF_FRAME":"TEME","MEAN_MOTION_DDOT":"0.0000000000000","TLE_LINE2":"2 48562  53.0535 235.5783 0001185  83.2597 276.8526 15.06391718 68326","OBJECT_ID":"2021-041K","SEMIMAJOR_AXIS":"6925.374","ECCENTRICITY":"0.00011850","DECAY_DATE":null,"PERIOD":"95.593","APOAPSIS":"548.060","COUNTRY_CODE":"US","OBJECT_NAME":"STARLINK-2187","ELEMENT_SET_NO":"999"},{"TLE_LINE1":"1 48563U 21041L   22223.72827753  .00000361  00000-0  43106-4 0  9994","GP_ID":"210038498","EPOCH":"2022-08-11T17:28:43.178592","ARG_OF_PERICENTER":"62.7833","EPHEMERIS_TYPE":"0","SITE":"AFETR","OBJECT_TYPE":"PAYLOAD","CENTER_NAME":"EARTH","MEAN_MOTION_DOT":"0.00000361","MEAN_MOTION":"15.06392695","PERIAPSIS":"546.241","LAUNCH_DATE":"2021-05-15","REV_AT_EPOCH":"6881","TIME_SYSTEM":"UTC","MEAN_ELEMENT_THEORY":"SGP4","MEAN_ANOMALY":"297.3302","INCLINATION":"53.0530","NORAD_CAT_ID":"48563","CLASSIFICATION_TYPE":"U","RA_OF_ASC_NODE":"234.3045","FILE":"3534622","RCS_SIZE":"LARGE","BSTAR":"0.00004310600000","COUNTRY_CODE":"US","APOAPSIS":"548.231","PERIOD":"95.593","DECAY_DATE":null,"ELEMENT_SET_NO":"999","OBJECT_NAME":"STARLINK-2188","OBJECT_ID":"2021-041L","TLE_LINE2":"2 48563  53.0530 234.3045 0001437  62.7833 297.3302 15.06392695 68814","REF_FRAME":"TEME","MEAN_MOTION_DDOT":"0.0000000000000","ECCENTRICITY":"0.00014370","SEMIMAJOR_AXIS":"6925.371"},{"PERIAPSIS":"546.244","REV_AT_EPOCH":"6876","LAUNCH_DATE":"2021-05-15","MEAN_ELEMENT_THEORY":"SGP4","TIME_SYSTEM":"UTC","NORAD_CAT_ID":"48564","INCLINATION":"53.0541","MEAN_ANOMALY":"287.2512","RA_OF_ASC_NODE":"234.3550","CLASSIFICATION_TYPE":"U","FILE":"3534625","RCS_SIZE":"LARGE","BSTAR":"0.00001065900000","TLE_LINE1":"1 48564U 21041M   22223.72091088 -.00000123  00000-0  10659-4 0  9993","GP_ID":"210038531","EPOCH":"2022-08-11T17:18:06.700032","ARG_OF_PERICENTER":"72.8635","SITE":"AFETR","EPHEMERIS_TYPE":"0","OBJECT_TYPE":"PAYLOAD","MEAN_MOTION_DOT":"-0.00000123","CENTER_NAME":"EARTH","MEAN_MOTION":"15.06389906","OBJECT_ID":"2021-041M","TLE_LINE2":"2 48564  53.0541 234.3550 0001445  72.8635 287.2512 15.06389906 68765","MEAN_MOTION_DDOT":"0.0000000000000","REF_FRAME":"TEME","ECCENTRICITY":"0.00014450","SEMIMAJOR_AXIS":"6925.379","COUNTRY_CODE":"US","APOAPSIS":"548.245","DECAY_DATE":null,"PERIOD":"95.593","ELEMENT_SET_NO":"999","OBJECT_NAME":"STARLINK-2190"},{"ARG_OF_PERICENTER":"76.4520","EPHEMERIS_TYPE":"0","SITE":"AFETR","OBJECT_TYPE":"PAYLOAD","MEAN_MOTION_DOT":"-0.00001902","CENTER_NAME":"EARTH","MEAN_MOTION":"15.06390563","TLE_LINE1":"1 48565U 21041N   22223.51723955 -.00001902  00000-0 -10885-3 0  9993","EPOCH":"2022-08-11T12:24:49.497120","GP_ID":"210038553","MEAN_ELEMENT_THEORY":"SGP4","TIME_SYSTEM":"UTC","MEAN_ANOMALY":"283.6621","INCLINATION":"53.0537","NORAD_CAT_ID":"48565","CLASSIFICATION_TYPE":"U","RA_OF_ASC_NODE":"235.2468","RCS_SIZE":"LARGE","FILE":"3534631","BSTAR":"-0.00010885000000","PERIAPSIS":"546.293","LAUNCH_DATE":"2021-05-15","REV_AT_EPOCH":"6878","ELEMENT_SET_NO":"999","OBJECT_NAME":"STARLINK-2191","COUNTRY_CODE":"US","APOAPSIS":"548.192","PERIOD":"95.593","DECAY_DATE":null,"ECCENTRICITY":"0.00013710","SEMIMAJOR_AXIS":"6925.377","OBJECT_ID":"2021-041N","TLE_LINE2":"2 48565  53.0537 235.2468 0001371  76.4520 283.6621 15.06390563 68784","REF_FRAME":"TEME","MEAN_MOTION_DDOT":"0.0000000000000"},{"COUNTRY_CODE":"US","APOAPSIS":"548.477","PERIOD":"95.593","DECAY_DATE":null,"ELEMENT_SET_NO":"999","OBJECT_NAME":"STARLINK-2214","OBJECT_ID":"2021-041P","TLE_LINE2":"2 48566  53.0541 245.4265 0001773  64.9440 295.1732 15.06388406 68185","MEAN_MOTION_DDOT":"0.0000000000000","REF_FRAME":"TEME","ECCENTRICITY":"0.00017730","SEMIMAJOR_AXIS":"6925.384","TLE_LINE1":"1 48566U 21041P   22223.47302533 -.00000725  00000-0 -29751-4 0  9999","GP_ID":"210027086","EPOCH":"2022-08-11T11:21:09.388512","ARG_OF_PERICENTER":"64.9440","SITE":"AFETR","EPHEMERIS_TYPE":"0","OBJECT_TYPE":"PAYLOAD","MEAN_MOTION_DOT":"-0.00000725","CENTER_NAME":"EARTH","MEAN_MOTION":"15.06388406","PERIAPSIS":"546.021","LAUNCH_DATE":"2021-05-15","REV_AT_EPOCH":"6818","MEAN_ELEMENT_THEORY":"SGP4","TIME_SYSTEM":"UTC","INCLINATION":"53.0541","NORAD_CAT_ID":"48566","MEAN_ANOMALY":"295.1732","RA_OF_ASC_NODE":"245.4265","CLASSIFICATION_TYPE":"U","FILE":"3534319","RCS_SIZE":"MEDIUM","BSTAR":"-0.00002975100000"},{"FILE":"3534319","RCS_SIZE":"LARGE","BSTAR":"0.00003114100000","RA_OF_ASC_NODE":"245.3974","CLASSIFICATION_TYPE":"U","NORAD_CAT_ID":"48567","INCLINATION":"53.0536","MEAN_ANOMALY":"277.7814","MEAN_ELEMENT_THEORY":"SGP4","TIME_SYSTEM":"UTC","LAUNCH_DATE":"2021-05-15","REV_AT_EPOCH":"6818","PERIAPSIS":"546.306","MEAN_MOTION":"15.06397088","MEAN_MOTION_DOT":"0.00000182","OBJECT_TYPE":"PAYLOAD","CENTER_NAME":"EARTH","SITE":"AFETR","EPHEMERIS_TYPE":"0","ARG_OF_PERICENTER":"82.3326","GP_ID":"210027336","EPOCH":"2022-08-11T11:42:23.807520","TLE_LINE1":"1 48567U 21041Q   22223.48777555  .00000182  00000-0  31141-4 0  9992","SEMIMAJOR_AXIS":"6925.357","ECCENTRICITY":"0.00013240","MEAN_MOTION_DDOT":"0.0000000000000","REF_FRAME":"TEME","TLE_LINE2":"2 48567  53.0536 245.3974 0001324  82.3326 277.7814 15.06397088 68188","OBJECT_ID":"2021-041Q","OBJECT_NAME":"STARLINK-2215","ELEMENT_SET_NO":"999","DECAY_DATE":null,"PERIOD":"95.592","APOAPSIS":"548.139","COUNTRY_CODE":"US"}];
